ISS (ZARYA)
1 25544U 98067A   25035.50000000  .00016717  00000+0  30580-3 0  9999
2 25544  51.6400  44.5000 0001234  90.0000 260.0000 15.50000000123456
TIANGONG
1 48274U 21035A   25035.50000000  .00020000  00000+0  30000-3 0  9998
2 48274  41.4700 320.0000 0006700   0.0000   0.0000 15.61000000000000
HUBBLE
1 20580U 90037B   25035.50000000  .00025000  00000+0  25000-3 0  9991
2 20580  28.4700 200.0000 0002800  60.0000 100.0000 15.10000000000000
NOAA 19
1 35649U 09005A   25035.50000000  .00001000  00000+0  20000-3 0  9990
2 35649  99.1000 300.0000 0014000  70.0000 290.0000 14.12000000000000
METOP-A
1 29499U 06044A   25035.50000000  .00001200  00000+0  22000-3 0  9994
2 29499  98.7000 280.0000 0001500  80.0000 280.0000 14.21000000000000
